ONEWEB-0522             
1 54140U 22138AD  26158.96864559  .00000002  00000+0 -28240-4 0  9996
2 54140  87.9172 306.7934 0001704  94.5065 265.6263 13.19724182175598
ONEWEB-0523             
1 54141U 22138AE  26159.24152872  .00000107  00000+0  23239-3 0  9994
2 54141  87.9194 276.2230 0002721 105.1954 254.9480 13.20770862178121
ONEWEB-0524             
1 54142U 22138AF  26159.30718852  .00000068  00000+0  13598-3 0  9991
2 54142  87.9191 276.2072 0002347 121.8856 238.2506 13.20771005178138
ONEWEB-0525             
1 54143U 22138AG  26159.13922907  .00000060  00000+0  11776-3 0  9999
2 54143  87.9172 306.7675 0001461  99.3398 260.7900 13.19724779175636
ONEWEB-0526             
1 54144U 22138AH  26159.17240382 -.00000313  00000+0 -81510-3 0  9990
2 54144  87.9173 306.7609 0001703 100.4617 259.6708 13.19727148175616
ONEWEB-0529             
1 54145U 22138AJ  26158.94810427  .00000041  00000+0  69334-4 0  9995
2 54145  87.9163 306.8154 0001575  97.4049 262.7263 13.19723986175609
ONEWEB-0531             
1 54146U 22138AK  26159.06646322  .00000019  00000+0  14313-4 0  9993
2 54146  87.9187 276.2531 0002725 111.0870 249.0555 13.20771036178109
ONEWEB-0535             
1 54147U 22138AL  26159.13290998  .00000043  00000+0  74766-4 0  9991
2 54147  87.9173 306.7624 0002181  96.9711 263.1670 13.19724240175642
ONEWEB-0536             
1 54148U 22138AM  26158.74995416  .00000057  00000+0  10762-3 0  9995
2 54148  87.9176 276.3397 0002748 115.7669 244.3748 13.20771064178059
ONEWEB-0527             
1 54642U 22166A   26159.25004630 -.00000632  00000+0 -15991-2 0  9990
2 54642  87.9250 245.7794 0002028 101.7836 292.1527 13.20226634  5204
ONEWEB-0528             
1 54643U 22166B   26159.24493625  .00000070  00000+0  13759-3 0  9991
2 54643  87.9255 245.7784 0001793 101.8238 258.3097 13.21669035170367
ONEWEB-0539             
1 54644U 22166C   26159.20746259  .00000175  00000+0  39187-3 0  9991
2 54644  87.9264 245.7574 0002076  93.4795 266.6577 13.21826526170358
ONEWEB-0540             
1 54645U 22166D   26159.21432487  .00000109  00000+0  23134-3 0  9990
2 54645  87.9258 245.7869 0002080  96.4507 263.6864 13.21827204170347
ONEWEB-0542             
1 54646U 22166E   26159.21755040  .00000056  00000+0  10367-3 0  9999
2 54646  87.9265 245.7538 0002107  91.4336 268.7039 13.21827292170352
ONEWEB-0545             
1 54647U 22166F   26159.18222332  .00000052  00000+0  94405-4 0  9991
2 54647  87.9254 245.7732 0002294  87.6233 272.5164 13.21827767170312
ONEWEB-0580             
1 54648U 22166G   26159.23268359  .00000068  00000+0  13424-3 0  9995
2 54648  87.9257 245.7631 0002362  92.7408 267.3997 13.21827852170367
ONEWEB-0582             
1 54649U 22166H   26159.19905231  .00000064  00000+0  12405-3 0  9992
2 54649  87.9255 245.7624 0002285  90.1087 270.0309 13.21825934170331
ONEWEB-0583             
1 54650U 22166J   26159.21082262  .00000025  00000+0  27918-4 0  9990
2 54650  87.9255 245.7836 0002039  97.0551 263.0815 13.21826429170342
ONEWEB-0584             
1 54651U 22166K   26159.23099644  .00000100  00000+0  20961-3 0  9999
2 54651  87.9255 245.7650 0002138  97.9693 262.1684 13.21825359170337
ONEWEB-0585             
1 54652U 22166L   26159.25456365 -.00000030  00000+0 -10448-3 0  9992
2 54652  87.9257 245.7468 0001953 103.6603 256.4748 13.21826927170347
ONEWEB-0586             
1 54653U 22166M   26159.19229616  .00000117  00000+0  25243-3 0  9996
2 54653  87.9256 245.7852 0002073  94.6568 265.4803 13.21824112170332
ONEWEB-0587             
1 54654U 22166N   26159.20238893  .00000038  00000+0  60637-4 0  9995
2 54654  87.9266 245.7558 0001850 109.3538 250.7796 13.21828165170497
ONEWEB-0589             
1 54655U 22166P   26159.18893370  .00000148  00000+0  32701-3 0  9992
2 54655  87.9252 245.7717 0002658  84.9219 275.2219 13.21824296170359
ONEWEB-0590             
1 54656U 22166Q   26159.21405133  .00000042  00000+0  70236-4 0  9992
2 54656  87.9264 245.7561 0002474 105.2596 254.8812 13.21827268170344
ONEWEB-0591             
1 54657U 22166R   26159.22596838  .00000131  00000+0  28674-3 0  9994
2 54657  87.9253 245.7692 0002121 100.0304 260.1070 13.21826730170379
ONEWEB-0592             
1 54658U 22166S   26159.22932580  .00000098  00000+0  20671-3 0  9994
2 54658  87.9266 245.7457 0002040  99.3982 260.7383 13.21827936170254
ONEWEB-0593             
1 54659U 22166T   26159.25117848  .00000066  00000+0  12859-3 0  9994
2 54659  87.9257 245.7534 0002002  94.6093 265.5270 13.21828436170366
ONEWEB-0594             
1 54660U 22166U   26159.19566178  .00000086  00000+0  17644-3 0  9992
2 54660  87.9256 245.7814 0002002 101.3137 258.8222 13.21824218170370
ONEWEB-0595             
1 54661U 22166V   26159.24782531  .00000044  00000+0  74564-4 0  9991
2 54661  87.9265 245.7507 0002010 106.0731 254.0625 13.21827193170359
ONEWEB-0596             
1 54662U 22166W   26159.22260160 -.00000007  00000+0 -49283-4 0  9990
2 54662  87.9256 245.7679 0002014 102.0961 258.0399 13.21826035170351
