OBJECT_NAME,OBJECT_ID,EPOCH,MEAN_MOTION,ECCENTRICITY,INCLINATION,RA_OF_ASC_NODE,ARG_OF_PERICENTER,MEAN_ANOMALY,EPHEMERIS_TYPE,CLASSIFICATION_TYPE,NORAD_CAT_ID,ELEMENT_SET_NO,REV_AT_EPOCH,BSTAR,MEAN_MOTION_DOT,MEAN_MOTION_DDOT
ONEWEB-0522,2022-138AD,2026-06-07T23:14:50.978976,13.19724182,.00017044,87.9172,306.7934,94.5065,265.6263,0,U,54140,999,17559,-.28240222E-4,.2E-7,0
ONEWEB-0523,2022-138AE,2026-06-08T05:47:48.081408,13.20770862,.00027211,87.9194,276.2230,105.1954,254.9480,0,U,54141,999,17812,.23238943E-3,.107E-5,0
ONEWEB-0524,2022-138AF,2026-06-08T07:22:21.088128,13.20771005,.00023479,87.9191,276.2072,121.8856,238.2506,0,U,54142,999,17813,.13598175E-3,.68E-6,0
ONEWEB-0525,2022-138AG,2026-06-08T03:20:29.391648,13.19724779,.00014611,87.9172,306.7675,99.3398,260.7900,0,U,54143,999,17563,.1177586E-3,.6E-6,0
ONEWEB-0526,2022-138AH,2026-06-08T04:08:15.690048,13.19727148,.00017036,87.9173,306.7609,100.4617,259.6708,0,U,54144,999,17561,-.81509828E-3,-.313E-5,0
ONEWEB-0529,2022-138AJ,2026-06-07T22:45:16.208928,13.19723986,.00015753,87.9163,306.8154,97.4049,262.7263,0,U,54145,999,17560,.69334399E-4,.41E-6,0
ONEWEB-0531,2022-138AK,2026-06-08T01:35:42.422208,13.20771036,.00027259,87.9187,276.2531,111.0870,249.0555,0,U,54146,999,17810,.14312505E-4,.19E-6,0
ONEWEB-0535,2022-138AL,2026-06-08T03:11:23.422272,13.19724240,.00021813,87.9173,306.7624,96.9711,263.1670,0,U,54147,999,17564,.7476595E-4,.43E-6,0
ONEWEB-0536,2022-138AM,2026-06-07T17:59:56.039424,13.20771064,.0002748,87.9176,276.3397,115.7669,244.3748,0,U,54148,999,17805,.10761561E-3,.57E-6,0
ONEWEB-0527,2022-166A,2026-06-08T06:00:04.000320,13.20226634,.00020284,87.9250,245.7794,101.7836,292.1527,0,U,54642,999,520,-.15990888E-2,-.632E-5,0
ONEWEB-0528,2022-166B,2026-06-08T05:52:42.492000,13.21669035,.00017938,87.9255,245.7784,101.8238,258.3097,0,U,54643,999,17036,.13759027E-3,.7E-6,0
ONEWEB-0539,2022-166C,2026-06-08T04:58:44.767776,13.21826526,.0002076,87.9264,245.7574,93.4795,266.6577,0,U,54644,999,17035,.39186611E-3,.175E-5,0
ONEWEB-0540,2022-166D,2026-06-08T05:08:37.668768,13.21827204,.00020804,87.9258,245.7869,96.4507,263.6864,0,U,54645,999,17034,.231344E-3,.109E-5,0
ONEWEB-0542,2022-166E,2026-06-08T05:13:16.354560,13.21827292,.00021077,87.9265,245.7538,91.4336,268.7039,0,U,54646,999,17035,.10367152E-3,.56E-6,0
ONEWEB-0545,2022-166F,2026-06-08T04:22:24.094848,13.21827767,.00022949,87.9254,245.7732,87.6233,272.5164,0,U,54647,999,17031,.94405205E-4,.52E-6,0
ONEWEB-0580,2022-166G,2026-06-08T05:35:03.862176,13.21827852,.0002362,87.9257,245.7631,92.7408,267.3997,0,U,54648,999,17036,.13423533E-3,.68E-6,0
ONEWEB-0582,2022-166H,2026-06-08T04:46:38.119584,13.21825934,.00022859,87.9255,245.7624,90.1087,270.0309,0,U,54649,999,17033,.1240533E-3,.64E-6,0
ONEWEB-0583,2022-166J,2026-06-08T05:03:35.074368,13.21826429,.00020392,87.9255,245.7836,97.0551,263.0815,0,U,54650,999,17034,.27917915E-4,.25E-6,0
ONEWEB-0584,2022-166K,2026-06-08T05:32:38.092416,13.21825359,.00021386,87.9255,245.7650,97.9693,262.1684,0,U,54651,999,17033,.209608E-3,.1E-5,0
ONEWEB-0585,2022-166L,2026-06-08T06:06:34.299360,13.21826927,.00019536,87.9257,245.7468,103.6603,256.4748,0,U,54652,999,17034,-.10447626E-3,-.3E-6,0
ONEWEB-0586,2022-166M,2026-06-08T04:36:54.388224,13.21824112,.00020736,87.9256,245.7852,94.6568,265.4803,0,U,54653,999,17033,.25243334E-3,.117E-5,0
ONEWEB-0587,2022-166N,2026-06-08T04:51:26.403552,13.21828165,.00018508,87.9266,245.7558,109.3538,250.7796,0,U,54654,999,17049,.60636904E-4,.38E-6,0
ONEWEB-0589,2022-166P,2026-06-08T04:32:03.871680,13.21824296,.00026583,87.9252,245.7717,84.9219,275.2219,0,U,54655,999,17035,.32700842E-3,.148E-5,0
ONEWEB-0590,2022-166Q,2026-06-08T05:08:14.034912,13.21827268,.00024741,87.9264,245.7561,105.2596,254.8812,0,U,54656,999,17034,.70236214E-4,.42E-6,0
ONEWEB-0591,2022-166R,2026-06-08T05:25:23.668032,13.21826730,.00021215,87.9253,245.7692,100.0304,260.1070,0,U,54657,999,17037,.28673681E-3,.131E-5,0
ONEWEB-0592,2022-166S,2026-06-08T05:30:13.749120,13.21827936,.000204,87.9266,245.7457,99.3982,260.7383,0,U,54658,999,17025,.20671372E-3,.98E-6,0
ONEWEB-0593,2022-166T,2026-06-08T06:01:41.820672,13.21828436,.00020029,87.9257,245.7534,94.6093,265.5270,0,U,54659,999,17036,.12859297E-3,.66E-6,0
ONEWEB-0594,2022-166U,2026-06-08T04:41:45.177792,13.21824218,.00020029,87.9256,245.7814,101.3137,258.8222,0,U,54660,999,17037,.17644421E-3,.86E-6,0
ONEWEB-0595,2022-166V,2026-06-08T05:56:52.106784,13.21827193,.000201,87.9265,245.7507,106.0731,254.0625,0,U,54661,999,17035,.74563577E-4,.44E-6,0
ONEWEB-0596,2022-166W,2026-06-08T05:20:32.778240,13.21826035,.00020141,87.9256,245.7679,102.0961,258.0399,0,U,54662,999,17035,-.4928256E-4,-.7E-7,0
